#dV2023  1 19 10  0  0.00000000    1682       CTS   FIT  GFZ
## 2245 381600.00000000    30.00000000 59963 0.4166666666667
+    1   L65  0  0  0  0  0  0  0  0  0  0  0  0  0  0  0  0
+          0  0  0  0  0  0  0  0  0  0  0  0  0  0  0  0  0
+          0  0  0  0  0  0  0  0  0  0  0  0  0  0  0  0  0
+          0  0  0  0  0  0  0  0  0  0  0  0  0  0  0  0  0
+          0  0  0  0  0  0  0  0  0  0  0  0  0  0  0  0  0
++         0  0  0  0  0  0  0  0  0  0  0  0  0  0  0  0  0
++         0  0  0  0  0  0  0  0  0  0  0  0  0  0  0  0  0
++         0  0  0  0  0  0  0  0  0  0  0  0  0  0  0  0  0
++         0  0  0  0  0  0  0  0  0  0  0  0  0  0  0  0  0
++         0  0  0  0  0  0  0  0  0  0  0  0  0  0  0  0  0
%c L  cc GPS ccc cccc cccc cccc cccc ccccc ccccc ccccc ccccc
%c cc cc ccc ccc cccc cccc cccc cccc ccccc ccccc ccccc ccccc
%f  0.0000000  0.000000000  0.00000000000  0.000000000000000
%f  0.0000000  0.000000000  0.00000000000  0.000000000000000
%i    0    0    0    0      0      0      0      0         0
%i    0    0    0    0      0      0      0      0         0
/* CCCCCCCCCCCCCCCCCCCCCCCCCCCCCCCCCCCCCCCCCCCCCCCCCCCCCCCCCCCCCCCCCCCCCCCCCCCCC
/* C                             GFZ RSO-ORBIT                                 C
/* C DOI: https://doi.org/10.5880/GFZ_ORBIT/RSO/L65_G_v02                      C
/* C                                                                           C
/* C DORIS        RMS: not applicable                                          C
/* C GNSS-E Code  RMS: not applicable                                          C
/* C GNSS-E Phase RMS: not applicable                                          C
/* C GNSS-G Code  RMS:  53.077 [cm]   Obs.acc.:     14581 Obs.eli.:      1137  C
/* C GNSS-G Phase RMS:   4.455 [mm]   Obs.acc.:     14581 Obs.eli.:      1137  C
/* C SLR          RMS: not applicable                                          C
/* C                                                                           C
/* CCCCCCCCCCCCCCCCCCCCCCCCCCCCCCCCCCCCCCCCCCCCCCCCCCCCCCCCCCCCCCCCCCCCCCCCCCCCC
*  2023  1 19 17 39  0.00000000
PL65  -4195.223796   1165.927726   5310.512733  10888.373627
VL65 -56446.808825  16787.536126 -48270.729502 999999.999999
*  2023  1 19 17 39 30.00000000
PL65  -4362.116505   1216.006864   5162.786183  10888.842573
VL65 -54804.881487  16594.282921 -50204.615871 999999.999999
*  2023  1 19 17 40  0.00000000
PL65  -4523.993349   1265.467757   5009.340241  10889.311123
VL65 -53103.220778  16375.365156 -52083.301523 999999.999999
*  2023  1 19 17 40 30.00000000
PL65  -4680.678054   1314.233366   4850.343683  10889.779744
VL65 -51343.787136  16130.758972 -53904.680286 999999.999999
*  2023  1 19 17 41  0.00000000
PL65  -4832.000323   1362.226634   4685.971513  10890.247996
VL65 -49528.606658  15860.477464 -55666.707574 999999.999999
*  2023  1 19 17 41 30.00000000
PL65  -4977.796035   1409.370605   4516.404773  10890.716322
VL65 -47659.768884  15564.571730 -57367.402186 999999.999999
*  2023  1 19 17 42  0.00000000
PL65  -5117.907428   1455.588529   4341.830350  10891.185201
VL65 -45739.424683  15243.131253 -59004.848693 999999.999999
*  2023  1 19 17 42 30.00000000
PL65  -5252.183284   1500.803984   4162.440778  10891.653846
VL65 -43769.783823  14896.283897 -60577.199504 999999.999999
*  2023  1 19 17 43  0.00000000
PL65  -5380.479099   1544.940991   3978.434029  10892.122569
VL65 -41753.113011  14524.196285 -62082.676831 999999.999999
*  2023  1 19 17 43 30.00000000
PL65  -5502.657252   1587.924126   3790.013298  10892.591174
VL65 -39691.733725  14127.074014 -63519.575640 999999.999999
*  2023  1 19 17 44  0.00000000
PL65  -5618.587165   1629.678643   3597.386786  10893.059356
VL65 -37588.019006  13705.161263 -64886.266198 999999.999999
*  2023  1 19 17 44 30.00000000
PL65  -5728.145451   1670.130584   3400.767465  10893.527399
VL65 -35444.390797  13258.740683 -66181.195433 999999.999999
*  2023  1 19 17 45  0.00000000
PL65  -5831.216063   1709.206899   3200.372852  10893.995303
VL65 -33263.317976  12788.133778 -67402.888919 999999.999999
*  2023  1 19 17 45 30.00000000
PL65  -5927.690426   1746.835560   2996.424763  10894.463159
VL65 -31047.313415  12293.700931 -68549.953624 999999.999999
*  2023  1 19 17 46  0.00000000
PL65  -6017.467564   1782.945677   2789.149071  10894.930931
VL65 -28798.930304  11775.840808 -69621.079797 999999.999999
*  2023  1 19 17 46 30.00000000
PL65  -6100.454219   1817.467613   2578.775451  10895.398700
VL65 -26520.759249  11234.989872 -70615.042095 999999.999999
*  2023  1 19 17 47  0.00000000
PL65  -6176.564956   1850.333098   2365.537125  10895.866410
VL65 -24215.425864  10671.622447 -71530.701198 999999.999999
*  2023  1 19 17 47 30.00000000
PL65  -6245.722269   1881.475342   2149.670601  10896.333951
VL65 -21885.588036  10086.250858 -72367.006088 999999.999999
*  2023  1 19 17 48  0.00000000
PL65  -6307.856666   1910.829148   1931.415406  10896.801531
VL65 -19533.932344   9479.425055 -73122.996457 999999.999999
*  2023  1 19 17 48 30.00000000
PL65  -6362.906755   1938.331024   1711.013808  10897.269351
VL65 -17163.169947   8851.731653 -73797.804302 999999.999999
*  2023  1 19 17 49  0.00000000
PL65  -6410.819310   1963.919291   1488.710541  10897.737182
VL65 -14776.032728   8203.793084 -74390.654736 999999.999999
*  2023  1 19 17 49 30.00000000
PL65  -6451.549325   1987.534193   1264.752521  10898.204884
VL65 -12375.269790   7536.267155 -74900.866649 999999.999999
*  2023  1 19 17 50  0.00000000
PL65  -6485.060066   2009.117998   1039.388569  10898.672304
VL65  -9963.644222   6849.846236 -75327.853703 999999.999999
*  2023  1 19 17 50 30.00000000
PL65  -6511.323101   2028.615100    812.869118  10899.139758
VL65  -7543.929505   6145.255829 -75671.125195 999999.999999
*  2023  1 19 17 51  0.00000000
PL65  -6530.318334   2045.972120    585.445931  10899.607305
VL65  -5118.906273   5423.253518 -75930.286130 999999.999999
*  2023  1 19 17 51 30.00000000
PL65  -6542.034016   2061.137998    357.371813  10900.074836
VL65  -2691.359760   4684.628653 -76105.037973 999999.999999
*  2023  1 19 17 52  0.00000000
PL65  -6546.466756   2074.064089    128.900316  10900.542424
VL65   -264.076045   3930.201942 -76195.180335 999999.999999
*  2023  1 19 17 52 30.00000000
PL65  -6543.621517   2084.704258    -99.714554  10901.009967
VL65   2160.163007   3160.824263 -76200.611703 999999.999999
*  2023  1 19 17 53  0.00000000
PL65  -6533.511596   2093.014962   -328.218636  10901.477247
VL65   4578.584336   2377.374878 -76121.328319 999999.999999
*  2023  1 19 17 53 30.00000000
PL65  -6516.158591   2098.955341   -556.357898  10901.944790
VL65   6988.426082   1580.760102 -75957.422398 999999.999999
*  2023  1 19 17 54  0.00000000
PL65  -6491.592369   2102.487289   -783.878733  10902.412518
VL65   9386.938874    771.912748 -75709.082380 999999.999999
*  2023  1 19 17 54 30.00000000
PL65  -6459.851021   2103.575543  -1010.528242  10902.880136
VL65  11771.389415    -48.208346 -75376.594520 999999.999999
*  2023  1 19 17 55  0.00000000
PL65  -6420.980807   2102.187748  -1236.054533  10903.347687
VL65  14139.065467   -878.619527 -74960.342915 999999.999999
*  2023  1 19 17 55 30.00000000
PL65  -6375.036090   2098.294541  -1460.207013  10903.815292
VL65  16487.279734  -1718.314583 -74460.808362 999999.999999
*  2023  1 19 17 56  0.00000000
PL65  -6322.079252   2091.869604  -1682.736673  10904.282875
VL65  18813.372109  -2566.266075 -73878.567190 999999.999999
*  2023  1 19 17 56 30.00000000
PL65  -6262.180611   2082.889736  -1903.396379  10904.750412
VL65  21114.712938  -3421.425758 -73214.291832 999999.999999
*  2023  1 19 17 57  0.00000000
PL65  -6195.418321   2071.334908  -2121.941155  10905.218038
VL65  23388.708653  -4282.726405 -72468.749954 999999.999999
*  2023  1 19 17 57 30.00000000
PL65  -6121.878259   2057.188320  -2338.128468  10905.685620
VL65  25632.804869  -5149.083636 -71642.801085 999999.999999
*  2023  1 19 17 58  0.00000000
PL65  -6041.653907   2040.436449  -2551.718502  10906.153242
VL65  27844.487494  -6019.397227 -70737.395739 999999.999999
*  2023  1 19 17 58 30.00000000
PL65  -5954.846220   2021.069094  -2762.474425  10906.620896
VL65  30021.286109  -6892.553031 -69753.575390 999999.999999
*  2023  1 19 17 59  0.00000000
PL65  -5861.563498   1999.079415  -2970.162667  10907.088568
VL65  32160.777890  -7767.424564 -68692.470420 999999.999999
*  2023  1 19 17 59 30.00000000
PL65  -5761.921234   1974.463968  -3174.553177  10907.556281
VL65  34260.590337  -8642.874270 -67555.297895 999999.999999
*  2023  1 19 18  0  0.00000000
PL65  -5656.041957   1947.222738  -3375.419686  10908.023989
VL65  36318.403956  -9517.755140 -66343.359655 999999.999999
*  2023  1 19 18  0 30.00000000
PL65  -5544.055075   1917.359161  -3572.539951  10908.490723
VL65  38331.954343 -10390.912343 -65058.040141 999999.999999
*  2023  1 19 18  1  0.00000000
PL65  -5426.096704   1884.880149  -3765.696008  10908.956756
VL65  40299.034078 -11261.184489 -63700.805158 999999.999999
*  2023  1 19 18  1 30.00000000
PL65  -5302.309491   1849.796105  -3954.674410  10909.423282
VL65  42217.495868 -12127.404937 -62273.200581 999999.999999
*  2023  1 19 18  2  0.00000000
PL65  -5172.842433   1812.120941  -4139.266463  10909.890049
VL65  44085.255769 -12988.403498 -60776.849834 999999.999999
*  2023  1 19 18  2 30.00000000
PL65  -5037.850679   1771.872078  -4319.268458  10910.357049
VL65  45900.295313 -13843.008337 -59213.450988 999999.999999
*  2023  1 19 18  3  0.00000000
PL65  -4897.495335   1729.070456  -4494.481889  10910.824452
VL65  47660.663003 -14690.047573 -57584.774373 999999.999999
*  2023  1 19 18  3 30.00000000
PL65  -4751.943258   1683.740529  -4664.713665  10911.292003
VL65  49364.476078 -15528.350719 -55892.660539 999999.999999
*  2023  1 19 18  4  0.00000000
PL65  -4601.366847   1635.910256  -4829.776321  10911.759584
VL65  51009.922512 -16356.750207 -54139.017773 999999.999999
EOF
